[{"OBJECT_NAME":"OBJECT A","OBJECT_ID":"2023-104A","EPOCH":"2026-03-06T18:47:13.750656","MEAN_MOTION":15.33350758,"ECCENTRICITY":0.00093331,"INCLINATION":97.2792,"RA_OF_ASC_NODE":135.5625,"ARG_OF_PERICENTER":122.1915,"MEAN_ANOMALY":238.0234,"EPHEMERIS_TYPE":0,"CLASSIFICATION_TYPE":"U","NORAD_CAT_ID":57424,"ELEMENT_SET_NO":999,"REV_AT_EPOCH":14634,"BSTAR":0.00048200218,"MEAN_MOTION_DOT":0.00015492,"MEAN_MOTION_DDOT":0},{"OBJECT_NAME":"STARLINK-35809","OBJECT_ID":"2025-254AB","EPOCH":"2026-03-09T17:17:47.380128","MEAN_MOTION":15.30203479,"ECCENTRICITY":0.00011798,"INCLINATION":53.1589,"RA_OF_ASC_NODE":229.9053,"ARG_OF_PERICENTER":68.321,"MEAN_ANOMALY":291.7917,"EPHEMERIS_TYPE":0,"CLASSIFICATION_TYPE":"U","NORAD_CAT_ID":66373,"ELEMENT_SET_NO":999,"REV_AT_EPOCH":1901,"BSTAR":0.00094978282,"MEAN_MOTION_DOT":0.00027879,"MEAN_MOTION_DDOT":0}]
